0 AUREOLE 3
1 12848U 81094A   13281.18125610  .00005232  00000-0  34768-3 0   651
2 12848 082.4953 352.9221 0653006 234.8381 118.9953 14.10255136598511
0 AUREOLE 3
1 12848U 81094A   13282.45841462  .00007672  00000-0  51028-3 0   661
2 12848 082.4952 351.8453 0652929 231.0519 123.0730 14.10275128598692
0 AUREOLE 3
1 12848U 81094A   13283.52270394  .00007167  00000-0  47648-3 0   673
2 12848 082.4952 350.9479 0652880 227.8979 126.4917 14.10287479598842
0 AUREOLE 3
1 12848U 81094A   13286.14792626  .00006072  00000-0  40303-3 0   698
2 12848 082.4952 348.7348 0652821 220.1200 135.0014 14.10319088599218
0 AUREOLE 3
1 12848U 81094A   13287.49599787  .00006714  00000-0  44560-3 0   704
2 12848 082.4948 347.5984 0652819 216.1290 139.4083 14.10331838599409
0 AUREOLE 3
1 12848U 81094A   13288.70215800  .00007298  00000-0  48408-3 0   714
2 12848 082.4942 346.5817 0652800 212.5600 143.3707 14.10352197599578
0 AUREOLE 3
1 12848U 81094A   13289.83735585  .00008173  00000-0  54204-3 0   721
2 12848 082.4934 345.6248 0652782 209.2015 147.1160 14.10366342599739
0 AUREOLE 3
1 12848U 81094A   13291.18539222  .00006465  00000-0  42812-3 0   737
2 12848 082.4924 344.4883 0652763 205.2136 151.5824 14.10385607599921
0 AUREOLE 3
1 12848U 81094A   13292.46246643  .00006586  00000-0  43593-3 0   743
2 12848 082.4913 343.4113 0652737 201.4385 155.8273 14.10400365600106
0 AUREOLE 3
1 12848U 81094A   13293.81047758  .00006621  00000-0  43791-3 0   750
2 12848 082.4903 342.2743 0652731 197.4536 160.3234 14.10415356600291
0 AUREOLE 3
1 12848U 81094A   13295.15847657  .00006571  00000-0  43428-3 0   767
2 12848 082.4895 341.1373 0652732 193.4714 164.8293 14.10431367600488
